[{"OBJECT_NAME":"SBSS (USA 216)","OBJECT_ID":"2010-048A","EPOCH":"2026-03-09T21:16:11.917056","MEAN_MOTION":15.1572421,"ECCENTRICITY":0.0082264,"INCLINATION":97.7474,"RA_OF_ASC_NODE":312.3885,"ARG_OF_PERICENTER":184.8326,"MEAN_ANOMALY":306.5835,"EPHEMERIS_TYPE":0,"CLASSIFICATION_TYPE":"U","NORAD_CAT_ID":37168,"ELEMENT_SET_NO":999,"REV_AT_EPOCH":83742,"BSTAR":0.00024191,"MEAN_MOTION_DOT":4.946e-5,"MEAN_MOTION_DDOT":0},{"OBJECT_NAME":"STARLINK-2699","OBJECT_ID":"2021-040F","EPOCH":"2026-03-10T00:00:02.999808","MEAN_MOTION":15.14225106,"ECCENTRICITY":0.00010945,"INCLINATION":53.0872,"RA_OF_ASC_NODE":150.3956,"ARG_OF_PERICENTER":60.8354,"MEAN_ANOMALY":13.9709,"EPHEMERIS_TYPE":0,"CLASSIFICATION_TYPE":"U","NORAD_CAT_ID":48433,"ELEMENT_SET_NO":999,"REV_AT_EPOCH":580,"BSTAR":0.075361952,"MEAN_MOTION_DOT":0.01532228,"MEAN_MOTION_DDOT":0}]
